CELESTIS-02             
1 25160U 98007D   22054.62381153 -.00000026  00000+0  46260-4 0  9990
2 25160 107.9852  37.5588 0064287 303.8607 151.5085 14.21598332246687
CELESTIS-03             
1 26034U 99070C   22054.57562554  .00008841  00000+0  47910-3 0  9996
2 26034  98.3127  49.6193 0012171 148.1672 212.0296 15.14813283203812
